[{"OBJECT_NAME":"STARLINK-34852","OBJECT_ID":"2025-237X","EPOCH":"2026-03-09T22:02:16.348128","MEAN_MOTION":15.30224487,"ECCENTRICITY":0.00016283,"INCLINATION":53.1615,"RA_OF_ASC_NODE":38.6972,"ARG_OF_PERICENTER":92.2015,"MEAN_ANOMALY":267.9172,"EPHEMERIS_TYPE":0,"CLASSIFICATION_TYPE":"U","NORAD_CAT_ID":66135,"ELEMENT_SET_NO":999,"REV_AT_EPOCH":2260,"BSTAR":0.0012758117,"MEAN_MOTION_DOT":0.00037647,"MEAN_MOTION_DDOT":0},{"OBJECT_NAME":"KUIPER-00276","OBJECT_ID":"2026-030AG","EPOCH":"2026-03-09T22:00:01.999584","MEAN_MOTION":15.30162454,"ECCENTRICITY":0.00186471,"INCLINATION":51.8824,"RA_OF_ASC_NODE":218.7283,"ARG_OF_PERICENTER":66.9346,"MEAN_ANOMALY":101.1527,"EPHEMERIS_TYPE":0,"CLASSIFICATION_TYPE":"U","NORAD_CAT_ID":67794,"ELEMENT_SET_NO":999,"REV_AT_EPOCH":482,"BSTAR":0.0021152378,"MEAN_MOTION_DOT":0.00063116,"MEAN_MOTION_DDOT":0}]
